0 FENGYUN 1C DEB
1 31284U 99025BNS 13281.24155666  .00000445  00000-0  35629-3 0  4708
2 31284 099.7634 062.3305 0155419 049.0041 312.4448 13.91031361333520
0 FENGYUN 1C DEB
1 31284U 99025BNS 13284.19053690  .00000441  00000-0  35333-3 0  4718
2 31284 099.7641 065.4303 0155275 041.3781 319.9044 13.91034147333930
0 FENGYUN 1C DEB
1 31284U 99025BNS 13286.20446779  .00000445  00000-0  35657-3 0  4720
2 31284 099.7641 067.5466 0155262 035.9949 325.1602 13.91036341334213
0 FENGYUN 1C DEB
1 31284U 99025BNS 13288.64994765  .00000450  00000-0  35979-3 0  4737
2 31284 099.7637 070.1157 0155304 029.3837 331.5950 13.91038980334550
0 FENGYUN 1C DEB
1 31284U 99025BNS 13289.58498295  .00000461  00000-0  36847-3 0  4746
2 31284 099.7620 071.0922 0154921 026.4255 334.5050 13.91040655334688
0 FENGYUN 1C DEB
1 31284U 99025BNS 13291.16733783  .00000472  00000-0  37654-3 0  4757
2 31284 099.7634 072.7592 0154546 022.4603 338.3378 13.91042860334900
0 FENGYUN 1C DEB
1 31284U 99025BNS 13293.18124506  .00000484  00000-0  38546-3 0  4763
2 31284 099.7631 074.8751 0154363 016.9189 343.7132 13.91045636335184
0 FENGYUN 1C DEB
1 31284U 99025BNS 13295.19514906  .00000512  00000-0  40538-3 0  4770
2 31284 099.7641 076.9953 0154350 011.8612 348.6143 13.91048784335467
